NORAD_CAT_ID,OBJECT_NAME,OBJECT_TYPE,EPOCH,MEAN_MOTION,ECCENTRICITY,INCLINATION,RA_OF_ASC_NODE,ARG_OF_PERICENTER,MEAN_ANOMALY,BSTAR,MEAN_MOTION_DOT,MEAN_MOTION_DDOT,TLE_LINE0,TLE_LINE1,TLE_LINE2,SEMIMAJOR_AXIS,PERIOD,APOGEE,PERIGEE,DECAYED
40536,KOMPSAT 3A,PAYLOAD,2021-11-19 11:59:02,15.12348181,0.00036219999999999997,97.5498,263.3203,122.0734,304.7848,7.5139e-05,1.238e-05,0.0,0 KOMPSAT 3A,1 40536U 15014A   21323.49933517  .00001238  00000-0  75139-4 0  9994,2 40536  97.5498 263.3203 0003622 122.0734 304.7848 15.12348181367311,6907.178000000001,95.21600000000001,531.545,526.5409999999998,0.0
40536,KOMPSAT 3A,PAYLOAD,2021-11-19 18:25:38,15.12348681,0.00036669999999999997,97.5498,263.5858,121.8979,325.7444,7.428e-05,1.223e-05,0.0,0 KOMPSAT 3A,1 40536U 15014A   21323.76781197  .00001223  00000-0  74280-4 0  9999,2 40536  97.5498 263.5858 0003667 121.8979 325.7444 15.12348681367350,6907.1759999999995,95.21600000000001,531.5740000000002,526.509,0.0
40536,KOMPSAT 3A,PAYLOAD,2021-11-20 02:31:27,15.12349368,0.0003714,97.5499,263.9192,121.5879,1.6818,7.325e-05,1.205e-05,0.0,0 KOMPSAT 3A,1 40536U 15014A   21324.10518072  .00001205  00000-0  73250-4 0  9994,2 40536  97.5499 263.9192 0003714 121.5879   1.6818 15.12349368367409,6907.174,95.21600000000001,531.605,526.474,0.0
40536,KOMPSAT 3A,PAYLOAD,2021-11-20 12:00:02,15.12349863,0.0003708,97.5501,264.3099,120.6427,350.9947,7.026399999999999e-05,1.153e-05,0.0,0 KOMPSAT 3A,1 40536U 15014A   21324.50002813  .00001153  00000-0  70264-4 0  9993,2 40536  97.5501 264.3099 0003708 120.6427 350.9947 15.12349863367465,6907.1730000000025,95.21600000000001,531.599,526.477,0.0
40536,KOMPSAT 3A,PAYLOAD,2021-11-20 21:24:34,15.1235008,0.0003793,97.5503,264.6978,120.1617,324.5624,6.5348e-05,1.068e-05,0.0,0 KOMPSAT 3A,1 40536U 15014A   21324.89206694  .00001068  00000-0  65348-4 0  9990,2 40536  97.5503 264.6978 0003793 120.1617 324.5624 15.12350080367525,6907.172,95.21600000000001,531.6569999999998,526.4169999999998,0.0
40536,KOMPSAT 3A,PAYLOAD,2021-11-21 00:47:16,15.12350161,0.00038199999999999996,97.5503,264.8369,119.7283,10.8665,6.3679e-05,1.039e-05,0.0,0 KOMPSAT 3A,1 40536U 15014A   21325.03282588  .00001039  00000-0  63679-4 0  9996,2 40536  97.5503 264.8369 0003820 119.7283  10.8665 15.12350161367547,6907.172,95.21600000000001,531.6759999999998,526.398,0.0
40536,KOMPSAT 3A,PAYLOAD,2021-11-21 10:20:31,15.12350306,0.00038139999999999995,97.5504,265.231,119.2876,17.3178,5.8758e-05,9.54e-06,0.0,0 KOMPSAT 3A,1 40536U 15014A   21325.43091578  .00000954  00000-0  58758-4 0  9994,2 40536  97.5504 265.2310 0003814 119.2876  17.3178 15.12350306367604,6907.172,95.21600000000001,531.6709999999998,526.4019999999998,0.0
40536,KOMPSAT 3A,PAYLOAD,2021-11-21 19:29:48,15.12350106,0.000381,97.5504,265.6083,117.9378,294.149,5.1888e-05,8.35e-06,0.0,0 KOMPSAT 3A,1 40536U 15014A   21325.81236769  .00000835  00000-0  51888-4 0  9994,2 40536  97.5504 265.6083 0003810 117.9378 294.1490 15.12350106367669,6907.172,95.21600000000001,531.669,526.406,0.0
40536,KOMPSAT 3A,PAYLOAD,2021-11-21 22:49:16,15.12350149,0.0003835,97.5504,265.7452,117.7282,328.0357,5.0505e-05,8.11e-06,0.0,0 KOMPSAT 3A,1 40536U 15014A   21325.95088556  .00000811  00000-0  50505-4 0  9997,2 40536  97.5504 265.7452 0003835 117.7282 328.0357 15.12350149367687,6907.172,95.21600000000001,531.686,526.388,0.0
40536,KOMPSAT 3A,PAYLOAD,2021-11-22 05:23:43,15.12350331,0.0003857,97.5504,266.0158,116.8547,19.34,4.8223e-05,7.71e-06,0.0,0 KOMPSAT 3A,1 40536U 15014A   21326.22481079  .00000771  00000-0  48223-4 0  9994,2 40536  97.5504 266.0158 0003857 116.8547  19.3400 15.12350331367729,6907.1709999999985,95.21600000000001,531.701,526.372,0.0
40536,KOMPSAT 3A,PAYLOAD,2021-11-22 12:58:00,15.12350071,0.0003863,97.5505,266.3281,116.5538,296.1046,4.275e-05,6.76e-06,0.0,0 KOMPSAT 3A,1 40536U 15014A   21326.54027887  .00000676  00000-0  42750-4 0  9995,2 40536  97.5505 266.3281 0003863 116.5538 296.1046 15.12350071367771,6907.172,95.21600000000001,531.706,526.369,0.0
40536,KOMPSAT 3A,PAYLOAD,2021-11-22 19:27:23,15.12350121,0.0003881,97.5506,266.5959,116.6421,327.3204,3.9964e-05,6.28e-06,0.0,0 KOMPSAT 3A,1 40536U 15014A   21326.81068876  .00000628  00000-0  39964-4 0  9998,2 40536  97.5506 266.5959 0003881 116.6421 327.3204 15.12350121367812,6907.172,95.21600000000001,531.7180000000002,526.356,0.0
40536,KOMPSAT 3A,PAYLOAD,2021-11-23 03:16:29,15.12350265,0.00039,97.5506,266.9181,115.7055,300.7273,3.7474e-05,5.85e-06,0.0,0 KOMPSAT 3A,1 40536U 15014A   21327.13644973  .00000585  00000-0  37474-4 0  9998,2 40536  97.5506 266.9181 0003900 115.7055 300.7273 15.12350265367863,6907.172,95.21600000000001,531.73,526.3430000000002,0.0
40536,KOMPSAT 3A,PAYLOAD,2021-11-23 11:33:47,15.12350402,0.0003907,97.5508,267.26,115.0546,20.4088,3.5191e-05,5.45e-06,0.0,0 KOMPSAT 3A,1 40536U 15014A   21327.48179536  .00000545  00000-0  35191-4 0  9994,2 40536  97.5508 267.2600 0003907 115.0546  20.4088 15.12350402367919,6907.1709999999985,95.21600000000001,531.735,526.3380000000002,0.0
40536,KOMPSAT 3A,PAYLOAD,2021-11-23 20:52:09,15.12350945,0.0003881,97.551,267.6434,113.5318,331.7417,3.4909e-05,5.41e-06,0.0,0 KOMPSAT 3A,1 40536U 15014A   21327.86955522  .00000541  00000-0  34909-4 0  9995,2 40536  97.5510 267.6434 0003881 113.5318 331.7417 15.12350945367974,6907.17,95.21600000000001,531.715,526.354,0.0
40536,KOMPSAT 3A,PAYLOAD,2021-11-24 05:02:42,15.12351486,0.0003904,97.551,267.9803,112.6874,26.1463,3.5306e-05,5.47e-06,0.0,0 KOMPSAT 3A,1 40536U 15014A   21328.21021892  .00000547  00000-0  35306-4 0  9997,2 40536  97.5510 267.9803 0003904 112.6874  26.1463 15.12351486368024,6907.168000000002,95.21600000000001,531.73,526.336,0.0
40536,KOMPSAT 3A,PAYLOAD,2021-11-24 09:41:57,15.12351858,0.000395,97.551,268.1721,112.4977,1.4843,3.5933e-05,5.58e-06,0.0,0 KOMPSAT 3A,1 40536U 15014A   21328.40414322  .00000558  00000-0  35933-4 0  9990,2 40536  97.5510 268.1721 0003950 112.4977   1.4843 15.12351858368053,6907.1669999999995,95.21600000000001,531.76,526.303,0.0
40536,KOMPSAT 3A,PAYLOAD,2021-11-24 20:35:08,15.12352935,0.00039160000000000003,97.5512,268.6207,110.6035,311.3865,3.9218e-05,6.15e-06,0.0,0 KOMPSAT 3A,1 40536U 15014A   21328.85773515  .00000615  00000-0  39218-4 0  9995,2 40536  97.5512 268.6207 0003916 110.6035 311.3865 15.12352935368128,6907.1640000000025,95.21600000000001,531.7330000000002,526.3240000000002,0.0
40536,KOMPSAT 3A,PAYLOAD,2021-11-25 03:12:54,15.12353839,0.0003905,97.5512,268.894,110.3618,14.619000000000002,4.2295e-05,6.69e-06,0.0,0 KOMPSAT 3A,1 40536U 15014A   21329.13396722  .00000669  00000-0  42295-4 0  9996,2 40536  97.5512 268.8940 0003905 110.3618  14.6190 15.12353839368168,6907.161,95.21600000000001,531.7230000000002,526.3290000000002,0.0
40536,KOMPSAT 3A,PAYLOAD,2021-11-25 11:12:31,15.12355011,0.00040019999999999997,97.5512,269.2235,109.85700000000001,27.3468,4.675e-05,7.46e-06,0.0,0 KOMPSAT 3A,1 40536U 15014A   21329.46703228  .00000746  00000-0  46750-4 0  9991,2 40536  97.5512 269.2235 0004002 109.8570  27.3468 15.12355011368218,6907.156999999997,95.21600000000001,531.786,526.258,0.0
40536,KOMPSAT 3A,PAYLOAD,2021-11-25 20:30:13,15.12356743,0.00039960000000000017,97.5514,269.6065,110.0742,334.4122,5.424100000000001e-05,8.76e-06,0.0,0 KOMPSAT 3A,1 40536U 15014A   21329.85432519  .00000876  00000-0  54241-4 0  9994,2 40536  97.5514 269.6065 0003996 110.0742 334.4122 15.12356743368279,6907.151999999999,95.21600000000001,531.7769999999998,526.257,0.0
40536,KOMPSAT 3A,PAYLOAD,2021-11-26 02:31:47,15.12357661,0.00039810000000000003,97.5514,269.8549,110.5711,260.1173,5.7334e-05,9.29e-06,0.0,0 KOMPSAT 3A,1 40536U 15014A   21330.10541653  .00000929  00000-0  57334-4 0  9999,2 40536  97.5514 269.8549 0003981 110.5711 260.1173 15.12357661368319,6907.149,95.21600000000001,531.764,526.264,0.0
40536,KOMPSAT 3A,PAYLOAD,2021-11-26 14:21:36,15.12359671,0.00040599999999999995,97.5517,270.3428,108.8756,63.8345,6.5059e-05,1.063e-05,0.0,0 KOMPSAT 3A,1 40536U 15014A   21330.59833926  .00001063  00000-0  65059-4 0  9992,2 40536  97.5517 270.3428 0004060 108.8756  63.8345 15.12359671368382,6907.143,95.215,531.812,526.2040000000002,0.0
40536,KOMPSAT 3A,PAYLOAD,2021-11-26 20:12:15,15.12360558,0.00040330000000000015,97.5517,270.5835,108.4561,309.1609,6.7435e-05,1.105e-05,0.0,0 KOMPSAT 3A,1 40536U 15014A   21330.84184081  .00001105  00000-0  67435-4 0  9998,2 40536  97.5517 270.5835 0004033 108.4561 309.1609 15.12360558368426,6907.14,95.215,531.7909999999998,526.22,0.0
40536,KOMPSAT 3A,PAYLOAD,2021-11-27 02:51:29,15.12361762,0.0004003,97.5518,270.8582,107.8542,18.3234,7.1199e-05,1.17e-05,0.0,0 KOMPSAT 3A,1 40536U 15014A   21331.11909527  .00001170  00000-0  71199-4 0  9993,2 40536  97.5518 270.8582 0004003 107.8542  18.3234 15.12361762368463,6907.137,95.215,531.7669999999998,526.237,0.0
40536,KOMPSAT 3A,PAYLOAD,2021-11-27 10:51:11,15.12362897,0.0004043,97.5518,271.1879,106.6272,32.0959,7.3959e-05,1.218e-05,0.0,0 KOMPSAT 3A,1 40536U 15014A   21331.45221858  .00001218  00000-0  73959-4 0  9993,2 40536  97.5518 271.1879 0004043 106.6272  32.0959 15.12362897368510,6907.1330000000025,95.215,531.7909999999998,526.206,0.0
40536,KOMPSAT 3A,PAYLOAD,2021-11-27 20:00:50,15.12364077,0.00040810000000000016,97.5519,271.5656,106.3339,309.2428,7.6075e-05,1.254e-05,0.0,0 KOMPSAT 3A,1 40536U 15014A   21331.83391819  .00001254  00000-0  76075-4 0  9992,2 40536  97.5519 271.5656 0004081 106.3339 309.2428 15.12364077368579,6907.13,95.215,531.813,526.1759999999998,0.0
40536,KOMPSAT 3A,PAYLOAD,2021-11-27 21:44:03,15.12364329,0.0004091,97.5519,271.6366,106.5602,339.0395,7.6643e-05,1.264e-05,0.0,0 KOMPSAT 3A,1 40536U 15014A   21331.90559941  .00001264  00000-0  76643-4 0  9994,2 40536  97.5519 271.6366 0004091 106.5602 339.0395 15.12364329368589,6907.129,95.215,531.82,526.168,0.0
